[{"OBJECT_NAME":"LUSAT (LO-19)","OBJECT_ID":"1990-005G","EPOCH":"2026-03-09T14:54:14.260896","MEAN_MOTION":14.34087969,"ECCENTRICITY":0.001234,"INCLINATION":98.8938,"RA_OF_ASC_NODE":87.6461,"ARG_OF_PERICENTER":134.6824,"MEAN_ANOMALY":225.5367,"EPHEMERIS_TYPE":0,"CLASSIFICATION_TYPE":"U","NORAD_CAT_ID":20442,"ELEMENT_SET_NO":999,"REV_AT_EPOCH":88812,"BSTAR":8.4338e-5,"MEAN_MOTION_DOT":1.89e-6,"MEAN_MOTION_DDOT":0},{"OBJECT_NAME":"CZ-6 R\/B","OBJECT_ID":"2021-064F","EPOCH":"2026-03-09T21:10:54.946560","MEAN_MOTION":14.40226995,"ECCENTRICITY":0.01723967,"INCLINATION":44.9985,"RA_OF_ASC_NODE":268.2389,"ARG_OF_PERICENTER":303.016,"MEAN_ANOMALY":55.4227,"EPHEMERIS_TYPE":0,"CLASSIFICATION_TYPE":"U","NORAD_CAT_ID":49023,"ELEMENT_SET_NO":999,"REV_AT_EPOCH":24556,"BSTAR":6.5702347e-5,"MEAN_MOTION_DOT":8.7e-7,"MEAN_MOTION_DDOT":0}]
